{
  "type": "FeatureCollection",
  "features": [
    {
      "type": "Feature",
      "properties": {
        "norad_id": 66545,
        "name": "SHIJIAN-30A",
        "group": "last-30-days",
        "lat": -50.34201068762584,
        "lon": -131.62349408294796,
        "alt_km": 524.4626207570846,
        "timestamp": "2025-12-11T22:43:46.023558+00:00",
        "meta_object_name": "SHIJIAN-30A",
        "meta_object_id": "2025-266A",
        "meta_epoch": "2025-12-11T12:05:52.169856",
        "meta_mean_motion": 15.15610589,
        "meta_eccentricity": 0.00127535,
        "meta_inclination": 51.7984,
        "meta_ra_of_asc_node": 338.651,
        "meta_arg_of_pericenter": 352.0224,
        "meta_mean_anomaly": 8.0548,
        "meta_ephemeris_type": 0,
        "meta_classification_type": "U",
        "meta_norad_cat_id": 66545,
        "meta_element_set_no": 999,
        "meta_rev_at_epoch": 339,
        "meta_bstar": 0.00085217755,
        "meta_mean_motion_dot": 0.0001615,
        "meta_mean_motion_ddot": 0,
        "tle_line1": "1 66545U 25266A   25345.50407604  .00016150  00000+0  85218-3 0  9991",
        "tle_line2": "2 66545  51.7984 338.6510 0012753 352.0224   8.0548 15.15610589  3395"
      },
      "geometry": {
        "type": "Point",
        "coordinates": [
          -131.62349408294796,
          -50.34201068762584
        ]
      }
    },
    {
      "type": "Feature",
      "properties": {
        "norad_id": 66546,
        "name": "SHIJIAN-30B",
        "group": "last-30-days",
        "lat": -48.661490501737156,
        "lon": -139.87622333000667,
        "alt_km": 526.0796762401042,
        "timestamp": "2025-12-11T22:43:46.023569+00:00",
        "meta_object_name": "SHIJIAN-30B",
        "meta_object_id": "2025-266B",
        "meta_epoch": "2025-12-11T13:42:13.679424",
        "meta_mean_motion": 15.15367073,
        "meta_eccentricity": 0.00104527,
        "meta_inclination": 51.7966,
        "meta_ra_of_asc_node": 338.345,
        "meta_arg_of_pericenter": 355.1974,
        "meta_mean_anomaly": 4.89,
        "meta_ephemeris_type": 0,
        "meta_classification_type": "U",
        "meta_norad_cat_id": 66546,
        "meta_element_set_no": 999,
        "meta_rev_at_epoch": 340,
        "meta_bstar": 0.00097735743,
        "meta_mean_motion_dot": 0.00018433,
        "meta_mean_motion_ddot": 0,
        "tle_line1": "1 66546U 25266B   25345.57099166  .00018433  00000+0  97736-3 0  9993",
        "tle_line2": "2 66546  51.7966 338.3450 0010452 355.1974   4.8900 15.15367073  3401"
      },
      "geometry": {
        "type": "Point",
        "coordinates": [
          -139.87622333000667,
          -48.661490501737156
        ]
      }
    },
    {
      "type": "Feature",
      "properties": {
        "norad_id": 66547,
        "name": "SHIJIAN-30C",
        "group": "last-30-days",
        "lat": -47.831434693871024,
        "lon": -143.01144413472588,
        "alt_km": 525.0325221243857,
        "timestamp": "2025-12-11T22:43:46.023581+00:00",
        "meta_object_name": "SHIJIAN-30C",
        "meta_object_id": "2025-266C",
        "meta_epoch": "2025-12-11T12:07:53.510016",
        "meta_mean_motion": 15.15470996,
        "meta_eccentricity": 0.00113312,
        "meta_inclination": 51.7976,
        "meta_ra_of_asc_node": 338.6584,
        "meta_arg_of_pericenter": 346.4221,
        "meta_mean_anomaly": 13.6449,
        "meta_ephemeris_type": 0,
        "meta_classification_type": "U",
        "meta_norad_cat_id": 66547,
        "meta_element_set_no": 999,
        "meta_rev_at_epoch": 339,
        "meta_bstar": 0.00089063311,
        "meta_mean_motion_dot": 0.0001682,
        "meta_mean_motion_ddot": 0,
        "tle_line1": "1 66547U 25266C   25345.50548044  .00016820  00000+0  89063-3 0  9993",
        "tle_line2": "2 66547  51.7976 338.6584 0011331 346.4221  13.6449 15.15470996  3392"
      },
      "geometry": {
        "type": "Point",
        "coordinates": [
          -143.01144413472588,
          -47.831434693871024
        ]
      }
    },
    {
      "type": "Feature",
      "properties": {
        "norad_id": 66548,
        "name": "CZ-2C R/B",
        "group": "last-30-days",
        "lat": -6.560443578096794,
        "lon": -30.092479500200902,
        "alt_km": 534.4812856957897,
        "timestamp": "2025-12-11T22:43:46.023592+00:00",
        "meta_object_name": "CZ-2C R/B",
        "meta_object_id": "2025-266D",
        "meta_epoch": "2025-12-11T14:55:44.131584",
        "meta_mean_motion": 15.30139901,
        "meta_eccentricity": 0.0083977,
        "meta_inclination": 52.0557,
        "meta_ra_of_asc_node": 336.6048,
        "meta_arg_of_pericenter": 169.17,
        "meta_mean_anomaly": 191.1119,
        "meta_ephemeris_type": 0,
        "meta_classification_type": "U",
        "meta_norad_cat_id": 66548,
        "meta_element_set_no": 999,
        "meta_rev_at_epoch": 344,
        "meta_bstar": 0.00046623167,
        "meta_mean_motion_dot": 0.00014997,
        "meta_mean_motion_ddot": 0,
        "tle_line1": "1 66548U 25266D   25345.62203856  .00014997  00000+0  46623-3 0  9994",
        "tle_line2": "2 66548  52.0557 336.6048 0083977 169.1700 191.1119 15.30139901  3449"
      },
      "geometry": {
        "type": "Point",
        "coordinates": [
          -30.092479500200902,
          -6.560443578096794
        ]
      }
    },
    {
      "type": "Feature",
      "properties": {
        "norad_id": 66549,
        "name": "SHIJIAN-28",
        "group": "last-30-days",
        "lat": 11.502788315087544,
        "lon": 6.780815041670753,
        "alt_km": 9327.98687116268,
        "timestamp": "2025-12-11T22:43:46.023605+00:00",
        "meta_object_name": "SHIJIAN-28",
        "meta_object_id": "2025-277A",
        "meta_epoch": "2025-12-01T04:36:42.476256",
        "meta_mean_motion": 2.08595383,
        "meta_eccentricity": 0.6308324,
        "meta_inclination": 11.5392,
        "meta_ra_of_asc_node": 275.706,
        "meta_arg_of_pericenter": 179.9335,
        "meta_mean_anomaly": 180.3971,
        "meta_ephemeris_type": 0,
        "meta_classification_type": "U",
        "meta_norad_cat_id": 66549,
        "meta_element_set_no": 999,
        "meta_rev_at_epoch": 5,
        "meta_bstar": 0,
        "meta_mean_motion_dot": -3.3e-07,
        "meta_mean_motion_ddot": 0,
        "tle_line1": "1 66549U 25277A   25335.19215829 -.00000033  00000+0  00000+0 0  9993",
        "tle_line2": "2 66549  11.5392 275.7060 6308324 179.9335 180.3971  2.08595383    50"
      },
      "geometry": {
        "type": "Point",
        "coordinates": [
          6.780815041670753,
          11.502788315087544
        ]
      }
    },
    {
      "type": "Feature",
      "properties": {
        "norad_id": 66550,
        "name": "CZ-7A R/B",
        "group": "last-30-days",
        "lat": 3.608174880285081,
        "lon": -75.48550918207046,
        "alt_km": 30479.988753037756,
        "timestamp": "2025-12-11T22:43:46.023627+00:00",
        "meta_object_name": "CZ-7A R/B",
        "meta_object_id": "2025-277B",
        "meta_epoch": "2025-12-11T12:15:39.945600",
        "meta_mean_motion": 2.65298958,
        "meta_eccentricity": 0.70570413,
        "meta_inclination": 14.4036,
        "meta_ra_of_asc_node": 270.5234,
        "meta_arg_of_pericenter": 187.6434,
        "meta_mean_anomaly": 149.2328,
        "meta_ephemeris_type": 0,
        "meta_classification_type": "U",
        "meta_norad_cat_id": 66550,
        "meta_element_set_no": 999,
        "meta_rev_at_epoch": 31,
        "meta_bstar": 0.0010583352,
        "meta_mean_motion_dot": 0.01545385,
        "meta_mean_motion_ddot": 2.47923e-06,
        "tle_line1": "1 66550U 25277B   25345.51087900  .01545385  24792-5  10583-2 0  9993",
        "tle_line2": "2 66550  14.4036 270.5234 7057041 187.6434 149.2328  2.65298958   319"
      },
      "geometry": {
        "type": "Point",
        "coordinates": [
          -75.48550918207046,
          3.608174880285081
        ]
      }
    },
    {
      "type": "Feature",
      "properties": {
        "norad_id": 66551,
        "name": "USA 568",
        "group": "last-30-days",
        "lat": 30.949302599681946,
        "lon": -142.18927687464108,
        "alt_km": 254.00313990029372,
        "timestamp": "2025-12-11T22:43:46.023638+00:00",
        "meta_object_name": "USA 568",
        "meta_object_id": "2024-134K",
        "meta_epoch": "2025-12-02T16:00:03.000096",
        "meta_mean_motion": 15.87051116,
        "meta_eccentricity": 7.17e-05,
        "meta_inclination": 53.1571,
        "meta_ra_of_asc_node": 236.7807,
        "meta_arg_of_pericenter": 110.7411,
        "meta_mean_anomaly": 313.9012,
        "meta_ephemeris_type": 0,
        "meta_classification_type": "U",
        "meta_norad_cat_id": 66551,
        "meta_element_set_no": 999,
        "meta_rev_at_epoch": 262,
        "meta_bstar": -0.0074303,
        "meta_mean_motion_dot": -0.01709685,
        "meta_mean_motion_ddot": 0,
        "tle_line1": "1 66551U 24134K   25336.66670139 -.01709685  00000+0 -74303-2 0  9990",
        "tle_line2": "2 66551  53.1571 236.7807 0000717 110.7411 313.9012 15.87051116  2624"
      },
      "geometry": {
        "type": "Point",
        "coordinates": [
          -142.18927687464108,
          30.949302599681946
        ]
      }
    }
  ]
}